{
  "type": "FeatureCollection",
  "features": [
    {
      "type": "Feature",
      "properties": {
        "norad_id": 41330,
        "name": "COSMOS 2514 (751)",
        "group": "glo-ops",
        "lat": -26.612963208412484,
        "lon": 152.52684036643532,
        "alt_km": 19104.14205276497,
        "timestamp": "2025-12-21T05:44:51.846869+00:00",
        "meta_object_name": "COSMOS 2514 (751)",
        "meta_object_id": "2016-008A",
        "meta_epoch": "2025-12-20T11:55:37.204896",
        "meta_mean_motion": 2.13102667,
        "meta_eccentricity": 0.00117608,
        "meta_inclination": 65.1293,
        "meta_ra_of_asc_node": 319.1384,
        "meta_arg_of_pericenter": 220.1375,
        "meta_mean_anomaly": 139.7678,
        "meta_ephemeris_type": 0,
        "meta_classification_type": "U",
        "meta_norad_cat_id": 41330,
        "meta_element_set_no": 999,
        "meta_rev_at_epoch": 7681,
        "meta_bstar": 0,
        "meta_mean_motion_dot": -5.2e-07,
        "meta_mean_motion_ddot": 0,
        "tle_line1": "1 41330U 16008A   25354.49695839 -.00000052  00000+0  00000+0 0  9994",
        "tle_line2": "2 41330  65.1293 319.1384 0011760 220.1375 139.7678  2.13102667 76814"
      },
      "geometry": {
        "type": "Point",
        "coordinates": [
          152.52684036643532,
          -26.612963208412484
        ]
      }
    },
    {
      "type": "Feature",
      "properties": {
        "norad_id": 42939,
        "name": "COSMOS 2522 (752)",
        "group": "glo-ops",
        "lat": -23.503237176986953,
        "lon": -174.27430679234428,
        "alt_km": 19138.72814294867,
        "timestamp": "2025-12-21T05:44:51.846884+00:00",
        "meta_object_name": "COSMOS 2522 (752)",
        "meta_object_id": "2017-055A",
        "meta_epoch": "2025-12-20T08:02:51.947808",
        "meta_mean_motion": 2.13102062,
        "meta_eccentricity": 0.00063083,
        "meta_inclination": 64.0763,
        "meta_ra_of_asc_node": 197.9702,
        "meta_arg_of_pericenter": 223.818,
        "meta_mean_anomaly": 136.2073,
        "meta_ephemeris_type": 0,
        "meta_classification_type": "U",
        "meta_norad_cat_id": 42939,
        "meta_element_set_no": 999,
        "meta_rev_at_epoch": 6416,
        "meta_bstar": 0,
        "meta_mean_motion_dot": 1.01e-06,
        "meta_mean_motion_ddot": 0,
        "tle_line1": "1 42939U 17055A   25354.33532347  .00000101  00000+0  00000+0 0  9994",
        "tle_line2": "2 42939  64.0763 197.9702 0006308 223.8180 136.2073  2.13102062 64167"
      },
      "geometry": {
        "type": "Point",
        "coordinates": [
          -174.27430679234428,
          -23.503237176986953
        ]
      }
    },
    {
      "type": "Feature",
      "properties": {
        "norad_id": 43508,
        "name": "COSMOS 2527 (756)",
        "group": "glo-ops",
        "lat": 3.35258885994808,
        "lon": 81.38998110343044,
        "alt_km": 19146.48805419903,
        "timestamp": "2025-12-21T05:44:51.846895+00:00",
        "meta_object_name": "COSMOS 2527 (756)",
        "meta_object_id": "2018-053A",
        "meta_epoch": "2025-12-18T21:19:14.310912",
        "meta_mean_motion": 2.13102316,
        "meta_eccentricity": 0.0008836,
        "meta_inclination": 65.4759,
        "meta_ra_of_asc_node": 79.9259,
        "meta_arg_of_pericenter": 226.7635,
        "meta_mean_anomaly": 133.1863,
        "meta_ephemeris_type": 0,
        "meta_classification_type": "U",
        "meta_norad_cat_id": 43508,
        "meta_element_set_no": 999,
        "meta_rev_at_epoch": 5843,
        "meta_bstar": 0,
        "meta_mean_motion_dot": -3.3e-07,
        "meta_mean_motion_ddot": 0,
        "tle_line1": "1 43508U 18053A   25352.88836008 -.00000033  00000+0  00000+0 0  9990",
        "tle_line2": "2 43508  65.4759  79.9259 0008836 226.7635 133.1863  2.13102316 58439"
      },
      "geometry": {
        "type": "Point",
        "coordinates": [
          81.38998110343044,
          3.35258885994808
        ]
      }
    },
    {
      "type": "Feature",
      "properties": {
        "norad_id": 43687,
        "name": "COSMOS 2529 (757)",
        "group": "glo-ops",
        "lat": -58.41417531239863,
        "lon": 146.9845698690917,
        "alt_km": 19121.501675388477,
        "timestamp": "2025-12-21T05:44:51.846906+00:00",
        "meta_object_name": "COSMOS 2529 (757)",
        "meta_object_id": "2018-086A",
        "meta_epoch": "2025-12-18T12:23:46.661856",
        "meta_mean_motion": 2.13102105,
        "meta_eccentricity": 0.00070461,
        "meta_inclination": 64.2922,
        "meta_ra_of_asc_node": 198.6932,
        "meta_arg_of_pericenter": 253.6593,
        "meta_mean_anomaly": 106.345,
        "meta_ephemeris_type": 0,
        "meta_classification_type": "U",
        "meta_norad_cat_id": 43687,
        "meta_element_set_no": 999,
        "meta_rev_at_epoch": 5543,
        "meta_bstar": 0,
        "meta_mean_motion_dot": 1.09e-06,
        "meta_mean_motion_ddot": 0,
        "tle_line1": "1 43687U 18086A   25352.51651229  .00000109  00000+0  00000+0 0  9997",
        "tle_line2": "2 43687  64.2922 198.6932 0007046 253.6593 106.3450  2.13102105 55434"
      },
      "geometry": {
        "type": "Point",
        "coordinates": [
          146.9845698690917,
          -58.41417531239863
        ]
      }
    },
    {
      "type": "Feature",
      "properties": {
        "norad_id": 44299,
        "name": "COSMOS 2534 (758)",
        "group": "glo-ops",
        "lat": 53.71599759131788,
        "lon": -120.51403725278867,
        "alt_km": 19140.693669258333,
        "timestamp": "2025-12-21T05:44:51.846917+00:00",
        "meta_object_name": "COSMOS 2534 (758)",
        "meta_object_id": "2019-030A",
        "meta_epoch": "2025-12-18T18:30:09.690336",
        "meta_mean_motion": 2.13102412,
        "meta_eccentricity": 0.0008748,
        "meta_inclination": 64.3658,
        "meta_ra_of_asc_node": 198.6898,
        "meta_arg_of_pericenter": 284.2192,
        "meta_mean_anomaly": 45.4012,
        "meta_ephemeris_type": 0,
        "meta_classification_type": "U",
        "meta_norad_cat_id": 44299,
        "meta_element_set_no": 999,
        "meta_rev_at_epoch": 5107,
        "meta_bstar": 0,
        "meta_mean_motion_dot": 1.08e-06,
        "meta_mean_motion_ddot": 0,
        "tle_line1": "1 44299U 19030A   25352.77094549  .00000108  00000+0  00000+0 0  9990",
        "tle_line2": "2 44299  64.3658 198.6898 0008748 284.2192  45.4012  2.13102412 51071"
      },
      "geometry": {
        "type": "Point",
        "coordinates": [
          -120.51403725278867,
          53.71599759131788
        ]
      }
    },
    {
      "type": "Feature",
      "properties": {
        "norad_id": 44850,
        "name": "COSMOS 2544 (759)",
        "group": "glo-ops",
        "lat": 41.000024871438065,
        "lon": 103.03771702509336,
        "alt_km": 19158.158900629798,
        "timestamp": "2025-12-21T05:44:51.846928+00:00",
        "meta_object_name": "COSMOS 2544 (759)",
        "meta_object_id": "2019-088A",
        "meta_epoch": "2025-12-20T17:02:22.284096",
        "meta_mean_motion": 2.13102112,
        "meta_eccentricity": 0.0014152,
        "meta_inclination": 65.4642,
        "meta_ra_of_asc_node": 79.6917,
        "meta_arg_of_pericenter": 250.1796,
        "meta_mean_anomaly": 109.702,
        "meta_ephemeris_type": 0,
        "meta_classification_type": "U",
        "meta_norad_cat_id": 44850,
        "meta_element_set_no": 999,
        "meta_rev_at_epoch": 4691,
        "meta_bstar": 0,
        "meta_mean_motion_dot": -1.4e-07,
        "meta_mean_motion_ddot": 0,
        "tle_line1": "1 44850U 19088A   25354.70998014 -.00000014  00000+0  00000+0 0  9998",
        "tle_line2": "2 44850  65.4642  79.6917 0014152 250.1796 109.7020  2.13102112 46914"
      },
      "geometry": {
        "type": "Point",
        "coordinates": [
          103.03771702509336,
          41.000024871438065
        ]
      }
    },
    {
      "type": "Feature",
      "properties": {
        "norad_id": 45358,
        "name": "COSMOS 2545 (760)",
        "group": "glo-ops",
        "lat": -61.10394795747758,
        "lon": -161.39527507598513,
        "alt_km": 19107.004878430296,
        "timestamp": "2025-12-21T05:44:51.846939+00:00",
        "meta_object_name": "COSMOS 2545 (760)",
        "meta_object_id": "2020-018A",
        "meta_epoch": "2025-12-19T00:41:16.420128",
        "meta_mean_motion": 2.13102611,
        "meta_eccentricity": 0.0011548,
        "meta_inclination": 64.4657,
        "meta_ra_of_asc_node": 318.7488,
        "meta_arg_of_pericenter": 249.6698,
        "meta_mean_anomaly": 110.1972,
        "meta_ephemeris_type": 0,
        "meta_classification_type": "U",
        "meta_norad_cat_id": 45358,
        "meta_element_set_no": 999,
        "meta_rev_at_epoch": 4482,
        "meta_bstar": 0,
        "meta_mean_motion_dot": -6.1e-07,
        "meta_mean_motion_ddot": 0,
        "tle_line1": "1 45358U 20018A   25353.02866227 -.00000061  00000+0  00000+0 0  9993",
        "tle_line2": "2 45358  64.4657 318.7488 0011548 249.6698 110.1972  2.13102611 44827"
      },
      "geometry": {
        "type": "Point",
        "coordinates": [
          -161.39527507598513,
          -61.10394795747758
        ]
      }
    }
  ]
}